{
  "type": "Feature",
  "geometry": {
    "type": "Polygon",
    "coordinates": [
      [
        [
          6.085739,
          49.522423
        ],
        [
          6.104622,
          49.525543
        ],
        [
          6.128998,
          49.514844
        ],
        [
          6.16127,
          49.520194
        ],
        [
          6.214142,
          49.530445
        ],
        [
          6.247444,
          49.523314
        ],
        [
          6.28624,
          49.523983
        ],
        [
          6.307182,
          49.539358
        ],
        [
          6.294823,
          49.549382
        ],
        [
          6.310272,
          49.561409
        ],
        [
          6.334648,
          49.5623
        ],
        [
          6.373787,
          49.5476
        ],
        [
          6.390266,
          49.544482
        ],
        [
          6.392326,
          49.51529
        ],
        [
          6.349068,
          49.51373
        ],
        [
          6.319542,
          49.511278
        ],
        [
          6.293793,
          49.503475
        ],
        [
          6.281433,
          49.491211
        ],
        [
          6.241608,
          49.501246
        ],
        [
          6.206932,
          49.499016
        ],
        [
          6.157494,
          49.499239
        ],
        [
          6.133804,
          49.492549
        ],
        [
          6.114235,
          49.48452
        ],
        [
          6.090889,
          49.495671
        ],
        [
          6.063766,
          49.497678
        ],
        [
          6.059303,
          49.508603
        ],
        [
          6.085739,
          49.522423
        ]
      ]
    ]
  },
  "properties": {}
}
