{
  "type": "Feature",
  "geometry": {
    "type": "Polygon",
    "coordinates": [
      [
        [
          5.933819,
          49.500911
        ],
        [
          5.946178,
          49.511278
        ],
        [
          5.991497,
          49.517631
        ],
        [
          6.007118,
          49.522088
        ],
        [
          6.038189,
          49.514287
        ],
        [
          6.031494,
          49.499573
        ],
        [
          5.988064,
          49.486974
        ],
        [
          5.974331,
          49.482736
        ],
        [
          5.937252,
          49.491657
        ],
        [
          5.933819,
          49.500911
        ]
      ]
    ]
  },
  "properties": {}
}
